ONEWEB-0560             
1 55145U 23004F   25115.60323772  .00000046  00000+0  82695-4 0  9996
2 55145  87.9135  58.4861 0001651  77.8289 282.3028 13.18688814114673
ONEWEB-0565             
1 55146U 23004G   25115.59692256 -.00000053  00000+0 -16692-3 0  9994
2 55146  87.9129  58.5501 0001691  96.8123 263.3201 13.18686762114662
ONEWEB-0567             
1 55147U 23004H   25115.59059604  .00000027  00000+0  36650-4 0  9995
2 55147  87.9130  58.5070 0001532  87.4470 272.6837 13.18686993114665
ONEWEB-0569             
1 55148U 23004J   25115.32637199  .00000364  00000+0  96055-3 0  9996
2 55148  87.8989  43.2417 0000927  77.4320 282.6912 13.13469098115322
ONEWEB-0570             
1 55149U 23004K   25115.57795176 -.00000038  00000+0 -12911-3 0  9993
2 55149  87.9130  58.5126 0002296  97.0516 263.0878 13.18686936114650
ONEWEB-0571             
1 55150U 23004L   25115.57159640 -.00001952  00000+0 -49853-2 0  9995
2 55150  87.9135  58.5222 0001717 106.9726 253.1595 13.18693455114665
ONEWEB-0572             
1 55151U 23004M   25115.41479189  .00000092  00000+0  20357-3 0  9993
2 55151  87.9025  89.0597 0002022  93.0400 267.0963 13.17647388112465
ONEWEB-0573             
1 55152U 23004N   25115.56530094  .00000019  00000+0  15064-4 0  9992
2 55152  87.9128  58.5298 0001783 109.3029 250.8296 13.18684479114655
